[
  {
    "name": "Hardenbergstraße 33",
    "street": "Hardenbergstraße 33",
    "postcode": 10623,
    "city": "Berlin"
  },
  {
    "name": "Bundesallee 1-12",
    "street": "Bundesallee 1-12",
    "postcode": 10719,
    "city": "Berlin"
  },
  {
    "name": "Einsteinufer 43-53",
    "street": "Einsteinufer 43-53",
    "postcode": 10587,
    "city": "Berlin"
  },
  {
    "name": "Jazz Institut Berlin",
    "street": "Einsteinufer 43-53, hinterer Hof",
    "postcode": 10587,
    "city": "Berlin"
  },
  {
    "name": "Fasanenstraße 1b",
    "street": "Fasanenstraße 1b",
    "postcode": 10623,
    "city": "Berlin"
  },
  {
    "name": "UNI.T - Theater der UdK Berlin",
    "street": "Fasanenstraße 1b",
    "postcode": 10623,
    "city": "Berlin"
  },
  {
    "name": "Hochschulübergreifendes Zentrum Tanz (HZT)",
    "street": "Uferstraße 23",
    "postcode": 13357,
    "city": "Berlin"
  },
  {
    "name": "Konzertsaal",
    "street": "Hardenbergstraße / Ecke Fasanenstrasse",
    "postcode": 10623,
    "city": "Berlin"
  },
  {
    "name": "Lietzenburger Straße 45",
    "street": "Lietzenburger Straße 45",
    "postcode": 10777,
    "city": "Berlin"
  },
  {
    "name": "Medienhaus",
    "street": "Grunewaldstraße 2-5",
    "postcode": 10823,
    "city": "Berlin"
  },
  {
    "name": "Straße des 17. Juni",
    "street": "Straße des 17. Juni",
    "postcode": 10623,
    "city": "Berlin"
  },
  {
    "name": "Universitätsbibliothek im Volkswagen-Haus",
    "street": "Fasanenstraße 88",
    "postcode": 10623,
    "city": "Berlin"
  },
  {
    "name": "Mierendorffstraße 30",
    "street": "Mierendorffstraße 30",
    "postcode": 10589,
    "city": "Berlin"
  }
]
